OBJECT_NAME,OBJECT_ID,EPOCH,MEAN_MOTION,ECCENTRICITY,INCLINATION,RA_OF_ASC_NODE,ARG_OF_PERICENTER,MEAN_ANOMALY,EPHEMERIS_TYPE,CLASSIFICATION_TYPE,NORAD_CAT_ID,ELEMENT_SET_NO,REV_AT_EPOCH,BSTAR,MEAN_MOTION_DOT,MEAN_MOTION_DDOT
NIMIQ 4,2008-044A,2026-06-17T06:03:43.500384,1.00267734,.0002087,0.0341,46.5963,36.4698,191.4102,0,U,33373,999,6498,0,0,0
GALAXY 19 (G-19),2008-045A,2026-06-17T09:06:48.185568,1.00271204,.0002462,0.0357,264.1139,185.9298,215.2964,0,U,33376,999,6490,0,-.143E-5,0
ASTRA 1M,2008-057A,2026-06-16T16:31:43.335264,1.00271394,.0004674,0.2958,82.4397,24.4495,65.3540,0,U,33436,999,4573,0,.118E-5,0
EUTELSAT HOTBIRD 13C,2008-065A,2026-06-16T17:54:27.386784,1.00270965,.0003284,2.9496,79.1965,5.7498,38.3846,0,U,33459,999,4734,0,-.287E-5,0
EXPRESS-AM44,2009-007A,2026-06-16T19:48:21.089376,1.00270965,.0003824,3.4623,78.3927,0.3269,112.4475,0,U,33595,999,5228,0,-.94E-6,0
NSS-9,2009-008A,2026-06-16T17:18:23.344992,1.00269855,.0001951,1.2611,82.6574,343.7219,281.2706,0,U,33749,999,6351,0,.68E-6,0
TELSTAR 11N,2009-009A,2026-06-16T17:58:12.029376,1.00270469,.0002145,0.0168,53.6932,33.4556,49.8529,0,U,34111,999,4624,0,-.253E-5,0
WGS F2 (USA 204),2009-017A,2026-06-16T22:50:58.471296,1.00270644,.0000268,0.0170,1.4851,245.2317,58.7440,0,U,34713,999,4561,0,.65E-6,0
SES-7 (PROTOSTAR 2),2009-027A,2026-06-16T23:47:45.847104,1.00271016,.0000675,0.0377,64.0237,142.7809,163.6641,0,U,34941,999,6262,0,-.348E-5,0
MEASAT-3A,2009-032A,2026-06-16T17:11:46.480416,1.00271659,.0002845,0.0224,348.3662,89.8542,244.7127,0,U,35362,999,802,0,-.113E-5,0
GOES 14,2009-033A,2026-06-16T20:31:59.634912,1.00110888,.0001742,1.6897,83.0444,11.3150,260.7785,0,U,35491,999,658,0,-.294E-5,0
FM-5,2009-034A,2026-06-17T08:17:37.946112,1.00269074,.0000869,0.0195,295.3044,7.9581,0.5852,0,U,35493,999,4664,0,-.204E-5,0
TERRESTAR-1,2009-035A,2026-06-17T05:22:07.347360,1.00270147,.000256,5.1812,48.7996,29.6869,156.5028,0,U,35496,999,6213,0,-.63E-6,0
ASIASAT 5,2009-042A,2026-06-16T20:20:08.272608,1.00267309,.0001586,0.0255,37.3123,50.6702,222.7177,0,U,35696,999,6170,0,0,0
JCSAT-12 (JCSAT-RA),2009-044A,2026-06-16T18:46:30.256896,1.00271328,.0000436,0.0115,346.9047,330.2546,1.5569,0,U,35755,999,6160,0,-.33E-5,0
OPTUS D3,2009-044B,2026-06-16T22:18:40.152096,1.00269616,.0002795,0.8740,268.9828,179.8033,307.2103,0,U,35756,999,6156,0,-.149E-5,0
NIMIQ 5,2009-050A,2026-06-17T06:50:46.132224,1.00270064,.0002648,0.0180,328.9324,112.9044,213.6990,0,U,35873,999,6134,0,-.261E-5,0
AMAZONAS 2,2009-054A,2026-06-17T03:20:49.553088,1.00268628,.0003185,1.8161,83.0501,358.9667,161.5682,0,U,35942,999,6118,0,-.263E-5,0
COMSATBW-1,2009-054B,2026-06-16T22:33:40.071168,1.00277400,.0002686,0.0581,163.0198,292.5275,211.1099,0,U,35943,999,6130,0,.2E-6,0
NSS-12,2009-058A,2026-06-16T23:33:06.053184,1.00268138,.0004768,0.0450,52.2869,3.8644,259.3699,0,U,36032,999,6091,0,.69E-6,0
THOR 6,2009-058B,2026-06-16T16:25:58.886112,1.00270891,.0001537,0.0149,82.6195,357.3564,70.6273,0,U,36033,999,6100,0,-.12E-6,0
INTELSAT 14 (IS-14),2009-064A,2026-06-17T07:32:37.463136,1.00270025,.0002205,0.0161,302.6192,137.6371,253.4721,0,U,36097,999,6060,0,-.278E-5,0
EUTELSAT 36B,2009-065A,2026-06-16T22:19:20.411040,1.00273752,.0005798,0.4914,81.1057,2.8196,206.6092,0,U,36101,999,6070,0,.109E-5,0
INTELSAT 15 (IS-15),2009-067A,2026-06-16T22:54:21.917376,1.00270326,.0002047,0.0121,311.4719,137.7052,244.7718,0,U,36106,999,4122,0,-.188E-5,0
WGS F3 (USA 211),2009-068A,2026-06-17T11:13:05.314368,1.00268321,.0000259,0.3260,85.8006,155.2184,62.9741,0,U,36108,999,4659,0,.6E-6,0
DIRECTV 12,2009-075A,2026-06-17T07:53:03.181920,1.00271807,.0000445,0.0140,115.9690,281.2842,243.8769,0,U,36131,999,4655,0,-.108E-5,0
BEIDOU-2 G1,2010-001A,2026-06-16T15:23:24.425088,1.00270453,.0002267,4.2916,60.4059,296.2187,279.6071,0,U,36287,999,6016,0,-.285E-5,0
SDO,2010-005A,2026-06-16T12:13:20.690400,1.00269934,.0001708,34.6508,86.3517,44.3809,215.2958,0,U,36395,999,6005,0,-.97E-6,0
INTELSAT 16 (IS-16),2010-006A,2026-06-17T04:43:18.774912,1.00275633,.0001909,0.0156,309.8703,146.3071,163.8927,0,U,36397,999,5965,0,-.249E-5,0
EWS-G2 (GOES 15),2010-008A,2026-06-16T22:35:24.010368,1.00275936,.0005411,1.2775,82.8648,42.2478,182.6632,0,U,36411,999,5963,0,.14E-6,0
ECHOSTAR 14,2010-010A,2026-06-17T02:55:41.560320,1.00272734,.0002361,0.0457,84.1921,20.0757,86.1619,0,U,36499,999,4655,0,-.4E-7,0
SES-1,2010-016A,2026-06-16T15:57:24.126048,1.00271087,.0002495,0.0124,336.5149,107.8858,318.8809,0,U,36516,999,5902,0,-.116E-5,0
